2025-292J               
1 67001U 25292J   25351.86249411  .00004605  00000+0  33386-3 0  9995
2 67001  97.6568  64.3651 0014239 249.4684 110.5014 15.04357836  1160
ZK-1A R/B               
1 67002U 25292K   25351.74148946  .00149979  80718-5  72409-3 0  9997
2 67002  97.7232  64.9261 0214339 347.5825  12.0192 15.56194858  1177
HULIANWANG DIGUI 16A    
1 67059U 25295A   25351.46978994 -.00000182  00000+0 -90034-5 0  9995
2 67059  50.0070 352.2731 0013896 264.5159  95.4170 14.25569756   795
HULIANWANG DIGUI 16B    
1 67060U 25295B   25349.71694909  .00000000  00000+0  66896-4 0  9998
2 67060  50.0050 359.6709 0013223 257.2650 102.6786 14.25706335   543
HULIANWANG DIGUI 16C    
1 67061U 25295C   25349.71692468 -.00000001  00000+0  66638-4 0  9993
2 67061  50.0012 359.6606 0013268 256.3366 103.6071 14.25729079   549
HULIANWANG DIGUI 16D    
1 67062U 25295D   25351.95971960  .00000228  00000+0  16229-3 0  9990
2 67062  50.0054 350.1972 0013159 271.6478  88.2929 14.25754267   863
HULIANWANG DIGUI 16E    
1 67063U 25295E   25351.88908209  .00000222  00000+0  15931-3 0  9992
2 67063  50.0061 350.4927 0012480 270.4953  89.4531 14.25887056   850
HULIANWANG DIGUI 16F    
1 67064U 25295F   25351.95891405 -.00000679  00000+0 -21604-3 0  9992
2 67064  50.0038 350.1829 0012068 265.3497  94.6039 14.25947779   862
HULIANWANG DIGUI 16G    
1 67065U 25295G   25351.95889507  .00000204  00000+0  15144-3 0  9997
2 67065  50.0012 350.1811 0012279 271.3766  88.5741 14.25952795   862
HULIANWANG DIGUI 16H    
1 67066U 25295H   25351.95828083  .00000223  00000+0  15897-3 0  9996
2 67066  50.0014 350.1771 0011435 268.5838  91.3766 14.26095759   869
HULIANWANG DIGUI 16J    
1 67067U 25295J   25351.88766778 -.00000900  00000+0 -30613-3 0  9998
2 67067  50.0053 350.4773 0010875 272.1043  87.8625 14.26250814   852
XIWANG-5 02             
1 67069U 25296A   25351.70624069  .00010539  00000+0  53476-3 0  9997
2 67069  41.3523  73.2396 0014585  59.9158 300.3108 15.16768165   717
DEAR-5                  
1 67070U 25296B   25351.70559271  .00005338  00000+0  27520-3 0  9993
2 67070  41.3550  73.2371 0016255  61.0620 299.1829 15.16872240   700
KZ-11 R/B               
1 67071U 25296C   25351.62186305  .05014457  57523-5  50082-3 0  9993
2 67071  41.3363  75.7493 0723722 348.4472  10.0477 14.75942676   676
ELECTRON R/B            
1 67072U 25297A   25351.84398549  .02084429  22292-5  13603-2 0  9999
2 67072  97.4774 139.6405 0221073 213.9823 144.7123 15.82324265   597
RAISE-4                 
1 67073U 25297B   25351.87767198  .00003778  00000+0  25489-3 0  9992
2 67073  97.4852 139.2886 0011515 302.1913  57.8198 15.07167685   564
ELECTRON KICK STAGE R/B 
1 67074U 25297C   25351.89332251  .00258168  19424-4  14445-2 0  9992
2 67074  97.4818 139.5876 0204007 250.7721 107.1361 15.55416319   581
ZIYUAN 3-04 (ZY 3-04)   
1 67131U 25300A   25350.24622558  .00001984  00000+0  83268-4 0  9999
2 67131  97.5012  64.3338 0011082 268.6179  91.3789 15.24627585    26
CZ-4B R/B               
1 67132U 25300B   25351.65197508  .00040269  26400-5  19398-3 0  9997
2 67132  97.5588  65.8680 0175089  12.9628 347.6044 15.63708593   245
GALILEO A               
1 67160U 25302A   25351.56771904 -.00000008  00000+0  00000+0 0  9994
2 67160  54.2352 107.2635 0007522 237.6848 122.2012  1.72900439    17
GALILEO B               
1 67161U 25302B   25351.56766403 -.00000008  00000+0  00000+0 0  9993
2 67161  54.2314 107.2469 0004864 248.2865 111.6205  1.72965674    23
ARIANE 6 R/B            
1 67162U 25302C   25351.56761655 -.00000008  00000+0  00000+0 0  9998
2 67162  54.2350 107.2750 0000522 120.9422 239.0217  1.73128011    57
